ORBCOMM FM103           
1 40091U 14040F   25280.82599345  .00001098  00000+0  27117-3 0  9993
2 40091  47.0048 205.7881 0001215  54.9567 305.1432 14.58364420580542
ORBCOMM FM114           
1 41179U 15081A   25280.57038885  .00000964  00000+0  24250-3 0  9992
2 41179  47.0017 115.9827 0001853 155.7260 204.3714 14.58398145520870
ORBCOMM FM119           
1 41180U 15081B   25280.63203127  .00001112  00000+0  27429-3 0  9991
2 41180  47.0018  25.0344 0001751 225.6357 134.4386 14.58340211522139
ORBCOMM FM105           
1 41181U 15081C   25280.35387401  .00000501  00000+0  18589-3 0  9997
2 41181  47.0025  42.2220 0001205 121.7208 238.3790 14.45319512516971
ORBCOMM FM110           
1 41182U 15081D   25280.56226591  .00001117  00000+0  27489-3 0  9996
2 41182  47.0009 115.5523 0002303 347.0937  12.9889 14.58427037520747
ORBCOMM FM118           
1 41183U 15081E   25280.73194001  .00000848  00000+0  21778-3 0  9991
2 41183  47.0032 115.0154 0003021 304.9727  55.0875 14.58396032520873
ORBCOMM FM112           
1 41184U 15081F   25280.60025191  .00001401  00000+0  33545-3 0  9992
2 41184  47.0005  24.2320 0001369 175.1022 184.9877 14.58450101522075
ORBCOMM FM113           
1 41185U 15081G   25280.71435816  .00001293  00000+0  31220-3 0  9991
2 41185  47.0011  24.0372 0001476 195.3767 164.7074 14.58462221522078
